[
    {
        "Altitude(m)": 557154.2593210869,
        "Argument of Periapsis(deg)": 0.033114955553567506,
        "Eccentricity": 0.0,
        "Inclination(deg)": 53.0,
        "Latitude(deg)": 40.96791752353044,
        "Longitude(deg)": 25.41539172634562,
        "Mean Anomaly(deg)": -234.99653566211208,
        "RAAN(deg)": 349.9507168426401,
        "Satellite Name": "Starlink Shell 1 1544",
        "Satellite Number": 1544,
        "Semi-Major Axis(m)": 6931778.249405717,
        "Time(s)": 950
    },
    {
        "Altitude(m)": 557071.958259909,
        "Argument of Periapsis(deg)": 0.03346353403307874,
        "Eccentricity": 0.0,
        "Inclination(deg)": 53.0,
        "Latitude(deg)": 40.58495345025229,
        "Longitude(deg)": 26.02904052658617,
        "Mean Anomaly(deg)": -234.36970445855536,
        "RAAN(deg)": 349.9501980725626,
        "Satellite Name": "Starlink Shell 1 1544",
        "Satellite Number": 1544,
        "Semi-Major Axis(m)": 6931778.249405717,
        "Time(s)": 960
    },
    {
        "Altitude(m)": 556989.3422407685,
        "Argument of Periapsis(deg)": 0.03381211251258998,
        "Eccentricity": 0.0,
        "Inclination(deg)": 53.0,
        "Latitude(deg)": 40.198292757341825,
        "Longitude(deg)": 26.63523250719168,
        "Mean Anomaly(deg)": -233.74287325499859,
        "RAAN(deg)": 349.94967930248515,
        "Satellite Name": "Starlink Shell 1 1544",
        "Satellite Number": 1544,
        "Semi-Major Axis(m)": 6931778.249405717,
        "Time(s)": 970
    },
    {
        "Altitude(m)": 556906.464696173,
        "Argument of Periapsis(deg)": 0.034160690992101214,
        "Eccentricity": 0.0,
        "Inclination(deg)": 53.0,
        "Latitude(deg)": 39.80802559705714,
        "Longitude(deg)": 27.234083685021897,
        "Mean Anomaly(deg)": -233.1160420514419,
        "RAAN(deg)": 349.9491605324077,
        "Satellite Name": "Starlink Shell 1 1544",
        "Satellite Number": 1544,
        "Semi-Major Axis(m)": 6931778.249405717,
        "Time(s)": 980
    },
    {
        "Altitude(m)": 556823.3794016263,
        "Argument of Periapsis(deg)": 0.034509269471612446,
        "Eccentricity": 0.0,
        "Inclination(deg)": 53.0,
        "Latitude(deg)": 39.414240277241255,
        "Longitude(deg)": 27.825711832296044,
        "Mean Anomaly(deg)": -232.4892108478852,
        "RAAN(deg)": 349.9486417623302,
        "Satellite Name": "Starlink Shell 1 1544",
        "Satellite Number": 1544,
        "Semi-Major Axis(m)": 6931778.249405717,
        "Time(s)": 990
    }
]